[
  {
    "group": "Africa",
    "geonameid": "360630",
    "box": [
      30.897,
      29.761,
      31.71,
      30.564
    ],
    "slug": "cairo",
    "name": "Cairo"
  },
  {
    "group": "Africa",
    "geonameid": "993800",
    "box": [
      27.537,
      -26.563,
      28.542,
      -25.834
    ],
    "slug": "johannesburg",
    "name": "Johannesburg"
  },
  {
    "group": "Africa",
    "geonameid": "2332459",
    "box": [
      2.889,
      6.32,
      3.834,
      6.91
    ],
    "slug": "lagos",
    "name": "Lagos"
  },
  {
    "group": "Africa",
    "geonameid": "184745",
    "box": [
      36.582,
      -1.488,
      37.056,
      -0.965
    ],
    "slug": "nairobi",
    "name": "Nairobi"
  },
  {
    "group": "Asia",
    "geonameid": "1526384",
    "box": [
      76.575,
      43.057,
      77.223,
      43.549
    ],
    "slug": "almaty",
    "name": "Almaty, Kazakhstan"
  },
  {
    "group": "Asia",
    "geonameid": "323786",
    "box": [
      32.105,
      39.439,
      33.509,
      40.372
    ],
    "slug": "ankara",
    "name": "Ankara"
  },
  {
    "group": "Asia",
    "geonameid": "1609350",
    "box": [
      99.569,
      12.661,
      101.337,
      15.019
    ],
    "slug": "bangkok",
    "name": "Bangkok"
  },
  {
    "group": "Asia",
    "geonameid": "1816670",
    "box": [
      115.686,
      39.414,
      117.119,
      40.426
    ],
    "slug": "beijing",
    "name": "Beijing"
  },
  {
    "group": "Asia",
    "geonameid": "1277333",
    "box": [
      77.35,
      12.75,
      77.85,
      13.23
    ],
    "slug": "bengaluru",
    "name": "Bengaluru"
  },
  {
    "group": "Asia",
    "geonameid": "1264527",
    "box": [
      79.9,
      12.7,
      80.4,
      13.3
    ],
    "slug": "chennai",
    "name": "Chennai"
  },
  {
    "group": "Asia",
    "geonameid": "1819729",
    "box": [
      112.78,
      21.591,
      115.125,
      23.488
    ],
    "slug": "hong-kong",
    "name": "Hong Kong"
  },
  {
    "group": "Asia",
    "geonameid": "1701668",
    "box": [
      120.885,
      14.327,
      121.2,
      14.9
    ],
    "slug": "manila",
    "name": "Manila"
  },
  {
    "group": "Asia",
    "geonameid": "1275339",
    "box": [
      72.415,
      18.466,
      73.516,
      19.5
    ],
    "slug": "mumbai",
    "name": "Mumbai"
  },
  {
    "group": "Asia",
    "geonameid": "1261481",
    "box": [
      76.692,
      28.183,
      77.733,
      28.969
    ],
    "slug": "new-delhi",
    "name": "New Delhi"
  },
  {
    "group": "Asia",
    "geonameid": "1853909",
    "box": [
      135.057,
      34.355,
      135.892,
      35.031
    ],
    "slug": "osaka",
    "name": "Osaka"
  },
  {
    "group": "Asia",
    "geonameid": "1835848",
    "box": [
      126.064,
      37.019,
      127.525,
      37.98
    ],
    "slug": "seoul",
    "name": "Seoul"
  },
  {
    "group": "Asia",
    "geonameid": "1796236",
    "box": [
      118.887,
      29.477,
      123.787,
      32.472
    ],
    "slug": "shanghai",
    "name": "Shanghai"
  },
  {
    "group": "Asia",
    "geonameid": "1880252",
    "box": [
      103.062,
      0.807,
      104.545,
      1.823
    ],
    "slug": "singapore",
    "name": "Singapore"
  },
  {
    "group": "Asia",
    "geonameid": "1668341",
    "box": [
      120.995,
      24.779,
      122.025,
      25.386
    ],
    "slug": "taipei",
    "name": "Taipei"
  },
  {
    "group": "Asia",
    "geonameid": "112931",
    "box": [
      50.87,
      35.383,
      51.648,
      35.917
    ],
    "slug": "tehran",
    "name": "Tehran"
  },
  {
    "group": "Asia",
    "geonameid": "1850147",
    "box": [
      138.779,
      34.867,
      141.152,
      36.558
    ],
    "slug": "tokyo",
    "name": "Tokyo"
  },
  {
    "group": "Europe",
    "geonameid": "2759794",
    "box": [
      4.465,
      52.163,
      5.347,
      52.629
    ],
    "slug": "amsterdam",
    "name": "Amsterdam"
  },
  {
    "group": "Europe",
    "geonameid": "2759794",
    "box": [
      22.949,
      37.514,
      24.421,
      38.365
    ],
    "slug": "athens",
    "name": "Athens"
  },
  {
    "group": "Europe",
    "geonameid": "3128760",
    "box": [
      1.734,
      41.075,
      2.496,
      41.687
    ],
    "slug": "barcelona",
    "name": "Barcelona"
  },
  {
    "group": "Europe",
    "geonameid": "2950159",
    "box": [
      12.26,
      51.849,
      14.699,
      52.994
    ],
    "slug": "berlin",
    "name": "Berlin"
  },
  {
    "group": "Europe",
    "geonameid": "2655603",
    "box": [
      -2.536,
      52.214,
      -1.267,
      52.794
    ],
    "slug": "birmingham",
    "name": "Birmingham"
  },
  {
    "group": "Europe",
    "geonameid": "3031582",
    "box": [
      -0.9,
      44.569,
      -0.162,
      45.065
    ],
    "slug": "bordeaux",
    "name": "Bordeaux"
  },
  {
    "group": "Europe",
    "geonameid": "3078610",
    "box": [
      16.268,
      48.951,
      16.94,
      49.357
    ],
    "slug": "brno",
    "name": "Brno"
  },
  {
    "group": "Europe",
    "geonameid": "2800866",
    "box": [
      3.981,
      50.645,
      4.761,
      51.053
    ],
    "slug": "brussels",
    "name": "Brussels"
  },
  {
    "group": "Europe",
    "geonameid": "3054643",
    "box": [
      18.347,
      47.025,
      19.78,
      47.861
    ],
    "slug": "budapest",
    "name": "Budapest"
  },
  {
    "group": "Europe",
    "geonameid": "2618425",
    "box": [
      11.894,
      55.491,
      13.147,
      55.95
    ],
    "slug": "copenhagen",
    "name": "Copenhagen"
  },
  {
    "group": "Europe",
    "geonameid": "2650225",
    "box": [
      -3.585,
      55.783,
      -2.835,
      56.132
    ],
    "slug": "edinburgh",
    "name": "Edinburgh"
  },
  {
    "group": "Europe",
    "geonameid": "3176959",
    "box": [
      10.982,
      43.601,
      11.504,
      43.983
    ],
    "slug": "florence",
    "name": "Florence"
  },
  {
    "group": "Europe",
    "geonameid": "2925533",
    "box": [
      7.811,
      49.632,
      9.442,
      50.447
    ],
    "slug": "frankfurt",
    "name": "Frankfurt"
  },
  {
    "group": "Europe",
    "geonameid": "3099434",
    "box": [
      18.174,
      54.007,
      19.113,
      54.87
    ],
    "slug": "gdansk",
    "name": "Gdansk"
  },
  {
    "group": "Europe",
    "geonameid": "2648579",
    "box": [
      -4.613,
      55.668,
      -3.935,
      56.034
    ],
    "slug": "glasgow",
    "name": "Glasgow"
  },
  {
    "group": "Europe",
    "geonameid": "2911298",
    "box": [
      9.376,
      53.159,
      10.678,
      53.833
    ],
    "slug": "hamburg",
    "name": "Hamburg"
  },
  {
    "group": "Europe",
    "geonameid": "745044",
    "box": [
      28.313,
      40.738,
      29.678,
      41.421
    ],
    "slug": "istanbul",
    "name": "Istanbul"
  },
  {
    "group": "Europe",
    "geonameid": "2892794",
    "box": [
      7.893,
      48.73,
      8.816,
      49.246
    ],
    "slug": "karlsruhe",
    "name": "Karlsruhe"
  },
  {
    "group": "Europe",
    "geonameid": "3094802",
    "box": [
      19.594,
      49.85,
      20.275,
      50.24
    ],
    "slug": "krakow",
    "name": "Krakow"
  },
  {
    "group": "Europe",
    "geonameid": "2644688",
    "box": [
      -1.717,
      53.697,
      -1.33,
      53.921
    ],
    "slug": "leeds",
    "name": "Leeds"
  },
  {
    "group": "Europe",
    "geonameid": "2998324",
    "box": [
      2.823,
      50.469,
      3.389,
      50.8
    ],
    "slug": "lille",
    "name": "Lille"
  },
  {
    "group": "Europe",
    "geonameid": "2267057",
    "box": [
      -9.634,
      38.358,
      -8.458,
      39.15
    ],
    "slug": "lisbon",
    "name": "Lisbon"
  },
  {
    "group": "Europe",
    "geonameid": "2996944",
    "box": [
      4.136,
      45.305,
      5.517,
      46.191
    ],
    "slug": "lyon",
    "name": "Lyon"
  },
  {
    "group": "Europe",
    "geonameid": "2643743",
    "box": [
      -1.115,
      50.941,
      0.895,
      51.984
    ],
    "slug": "london",
    "name": "London"
  },
  {
    "group": "Europe",
    "geonameid": "3117735",
    "box": [
      -4.293,
      39.889,
      -3.057,
      40.839
    ],
    "slug": "madrid",
    "name": "Madrid"
  },
  {
    "group": "Europe",
    "geonameid": "2643123",
    "box": [
      -2.588,
      53.237,
      -1.877,
      53.672
    ],
    "slug": "manchester",
    "name": "Manchester"
  },
  {
    "group": "Europe",
    "geonameid": "2995469",
    "box": [
      4.905,
      43.038,
      5.776,
      43.554
    ],
    "slug": "marseille",
    "name": "Marseille"
  },
  {
    "group": "Europe",
    "geonameid": "2993458",
    "box": [
      7.349,
      43.71,
      7.491,
      43.77
    ],
    "slug": "monaco",
    "name": "Monaco"
  },
  {
    "group": "Europe",
    "geonameid": "2992166",
    "box": [
      4.488,
      43.241,
      3.381,
      43.91
    ],
    "slug": "montpellier",
    "name": "Montpellier"
  },
  {
    "group": "Europe",
    "geonameid": "524901",
    "box": [
      36.87,
      55.285,
      38.43,
      56.2
    ],
    "slug": "moscow",
    "name": "Moscow"
  },
  {
    "group": "Europe",
    "geonameid": "2867714",
    "box": [
      10.799,
      47.717,
      12.178,
      48.523
    ],
    "slug": "munich",
    "name": "Munich"
  },
  {
    "group": "Europe",
    "geonameid": "2988507",
    "box": [
      1.851,
      48.531,
      2.911,
      49.178
    ],
    "slug": "paris",
    "name": "Paris"
  },
  {
    "group": "Europe",
    "geonameid": "3067696",
    "box": [
      13.842,
      49.763,
      15.012,
      50.408
    ],
    "slug": "prague",
    "name": "Prague"
  },
  {
    "group": "Europe",
    "geonameid": "3169070",
    "box": [
      12.109,
      41.578,
      12.845,
      42.13
    ],
    "slug": "rome",
    "name": "Rome"
  },
  {
    "group": "Europe",
    "geonameid": "2747891",
    "box": [
      3.911,
      51.737,
      4.784,
      52.109
    ],
    "slug": "rotterdam",
    "name": "Rotterdam"
  },
  {
    "group": "Europe",
    "geonameid": "727011",
    "box": [
      22.87,
      42.38,
      23.83,
      43.04
    ],
    "slug": "sofia",
    "name": "Sofia"
  },
  {
    "group": "Europe",
    "geonameid": "2673730",
    "box": [
      17.061,
      58.85,
      19.055,
      59.908
    ],
    "slug": "stockholm",
    "name": "Stockholm"
  },
  {
    "group": "Europe",
    "geonameid": "498817",
    "box": [
      29.168,
      59.556,
      31.173,
      60.345
    ],
    "slug": "st-petersburg",
    "name": "Saint Petersburg"
  },
  {
    "group": "Europe",
    "geonameid": "2972315",
    "box": [
      1.062,
      43.327,
      1.779,
      43.838
    ],
    "slug": "toulouse",
    "name": "Toulouse"
  },
  {
    "group": "Europe",
    "geonameid": "3164603",
    "box": [
      11.629,
      45.123,
      12.735,
      45.811
    ],
    "slug": "venice",
    "name": "Venice"
  },
  {
    "group": "Europe",
    "geonameid": "756135",
    "box": [
      20.341,
      51.845,
      21.692,
      52.623
    ],
    "slug": "warsaw",
    "name": "Warsaw"
  },
  {
    "group": "Europe",
    "geonameid": "3081368",
    "box": [
      16.652,
      50.877,
      17.363,
      51.311
    ],
    "slug": "wroclaw",
    "name": "Wroclaw"
  },
  {
    "group": "Middle East",
    "geonameid": "98182",
    "box": [
      43.786,
      32.9671,
      44.862,
      33.715
    ],
    "slug": "baghdad",
    "name": "Baghdad"
  },
  {
    "group": "Middle East",
    "geonameid": "170654",
    "box": [
      35.841,
      33.112,
      36.73,
      33.805
    ],
    "slug": "damascus",
    "name": "Damascus"
  },
  {
    "group": "Middle East",
    "geonameid": "292223;292968",
    "box": [
      53.58,
      23.735,
      56.887,
      26.539
    ],
    "slug": "dubai-abu-dhabi",
    "name": "Dubai, Abu Dhabi"
  },
  {
    "group": "Middle East",
    "geonameid": "1138958",
    "box": [
      68.48,
      34.081,
      69.86,
      34.95
    ],
    "slug": "kabul",
    "name": "Kabul"
  },
  {
    "group": "Middle East",
    "geonameid": "108410",
    "box": [
      46.227,
      24.292,
      47.202,
      25.098
    ],
    "slug": "riyadh",
    "name": "Riyadh"
  },
  {
    "group": "North America",
    "geonameid": "4180439",
    "box": [
      -84.857,
      33.414,
      -83.89,
      34.09
    ],
    "slug": "atlanta",
    "name": "Atlanta"
  },
  {
    "group": "North America",
    "geonameid": "4671654",
    "box": [
      -98.212,
      29.931,
      -97.234,
      30.67
    ],
    "slug": "austin",
    "name": "Austin"
  },
  {
    "group": "North America",
    "geonameid": "4930956",
    "box": [
      -71.861,
      41.951,
      -70.285,
      42.702
    ],
    "slug": "boston",
    "name": "Boston"
  },
  {
    "group": "North America",
    "geonameid": "4460243",
    "box": [
      -81.307,
      34.919,
      -80.396,
      35.476
    ],
    "slug": "charlotte",
    "name": "Charlotte"
  },
  {
    "group": "North America",
    "geonameid": "4887398",
    "box": [
      -88.505,
      41.339,
      -87.066,
      42.297
    ],
    "slug": "chicago",
    "name": "Chicago"
  },
  {
    "group": "North America",
    "geonameid": "4508722",
    "box": [
      -84.843,
      38.875,
      -84.121,
      39.471
    ],
    "slug": "cincinnati",
    "name": "Cincinnati"
  },
  {
    "group": "North America",
    "geonameid": "5150529",
    "box": [
      -82.485,
      40.73,
      -80.798,
      41.918
    ],
    "slug": "cleveland",
    "name": "Cleveland"
  },
  {
    "group": "North America",
    "geonameid": "4509177;5151891",
    "box": [
      -83.482,
      39.542,
      -82.479,
      40.459
    ],
    "slug": "columbus-oh",
    "name": "Columbus and Delaware, OH"
  },
  {
    "group": "North America",
    "geonameid": "4684888",
    "box": [
      -97.789,
      32.166,
      -96.113,
      33.431
    ],
    "slug": "dallas",
    "name": "Dallas"
  },
  {
    "group": "North America",
    "geonameid": "5419384",
    "box": [
      -105.746,
      39.323,
      -104.334,
      40.204
    ],
    "slug": "denver",
    "name": "Denver"
  },
  {
    "group": "North America",
    "geonameid": "4990729",
    "box": [
      -83.875,
      41.836,
      -82.375,
      42.811
    ],
    "slug": "detroit",
    "name": "Detroit"
  },
  {
    "group": "North America",
    "geonameid": "4257227",
    "box": [
      -87.747,
      37.759,
      -87.237,
      38.177
    ],
    "slug": "evansville",
    "name": "Evansville"
  },
  {
    "group": "North America",
    "geonameid": "5856195",
    "box": [
      -158.35,
      21.192,
      -157.592,
      21.781
    ],
    "slug": "honolulu",
    "name": "Honolulu"
  },
  {
    "group": "North America",
    "geonameid": "4699066",
    "box": [
      -96.064,
      28.856,
      -94.378,
      30.261
    ],
    "slug": "houston",
    "name": "Houston"
  },
  {
    "group": "North America",
    "geonameid": "5565500",
    "box": [
      -124.744,
      39.988,
      -122.802,
      41.553
    ],
    "slug": "humboldt-ca",
    "name": "Humboldt, CA"
  },
  {
    "group": "North America",
    "geonameid": "4259418",
    "box": [
      -86.485,
      39.454,
      -85.746,
      40.134
    ],
    "slug": "indianapolis",
    "name": "Indianapolis"
  },
  {
    "group": "North America",
    "geonameid": "5989045",
    "box": [
      -121.437,
      50.011,
      -119.514,
      51.003
    ],
    "slug": "kamloops",
    "name": "Kamloops"
  },
  {
    "group": "North America",
    "geonameid": "5506956",
    "box": [
      -115.581,
      35.757,
      -114.211,
      36.615
    ],
    "slug": "las-vegas",
    "name": "Las Vegas"
  },
  {
    "group": "North America",
    "geonameid": "4393217;4274277;4280539",
    "box": [
      -95.946,
      38.599,
      -94.048,
      39.419
    ],
    "slug": "kansas-city-lawrence-topeka",
    "name": "Kansas City, Lawrence, Topeka"
  },
  {
    "group": "North America",
    "geonameid": "5368361",
    "box": [
      -119.437,
      33.298,
      -116.724,
      34.583
    ],
    "slug": "los-angeles",
    "name": "Los Angeles"
  },
  {
    "group": "North America",
    "geonameid": "4207400",
    "box": [
      -83.907,
      32.66,
      -83.482,
      32.969
    ],
    "slug": "macon-ga",
    "name": "Macon, GA"
  },
  {
    "group": "North America",
    "geonameid": "5261457",
    "box": [
      -89.854,
      42.801,
      -88.992,
      43.343
    ],
    "slug": "madison",
    "name": "Madison"
  },
  {
    "group": "North America",
    "geonameid": "3530597",
    "box": [
      -99.597,
      18.992,
      -98.606,
      19.921
    ],
    "slug": "mexico-city",
    "name": "Mexico City"
  },
  {
    "group": "North America",
    "geonameid": "4164138",
    "box": [
      -80.683,
      25.291,
      -79.774,
      26.912
    ],
    "slug": "miami",
    "name": "Miami"
  },
  {
    "group": "North America",
    "geonameid": "5263045",
    "box": [
      -88.511,
      42.656,
      -87.522,
      43.389
    ],
    "slug": "milwaukee",
    "name": "Milwaukee"
  },
  {
    "group": "North America",
    "geonameid": "5037649;5045360",
    "box": [
      -94.064,
      44.496,
      -92.543,
      45.41
    ],
    "slug": "mpls-stpaul",
    "name": "Minneapolis, St. Paul"
  },
  {
    "group": "North America",
    "geonameid": "4076598",
    "box": [
      -88.363,
      30.496,
      -87.832,
      30.883
    ],
    "slug": "mobile-al",
    "name": "Mobile, AL"
  },
  {
    "group": "North America",
    "geonameid": "6077243",
    "box": [
      -74.734,
      44.968,
      -72.723,
      46.057
    ],
    "slug": "montreal",
    "name": "Montreal"
  },
  {
    "group": "North America",
    "geonameid": "4335045",
    "box": [
      -90.653,
      28.887,
      -89.11,
      30.51
    ],
    "slug": "new-orleans",
    "name": "New Orleans"
  },
  {
    "group": "North America",
    "geonameid": "5128581",
    "box": [
      -74.501,
      40.345,
      -73.226,
      41.097
    ],
    "slug": "new-york",
    "name": "New York City"
  },
  {
    "group": "North America",
    "geonameid": "4560349",
    "box": [
      -75.572,
      39.641,
      -74.641,
      40.308
    ],
    "slug": "philadelphia",
    "name": "Philadelphia"
  },
  {
    "group": "North America",
    "geonameid": "5308655",
    "box": [
      -112.821,
      32.796,
      -111.211,
      34.07
    ],
    "slug": "phoenix",
    "name": "Phoenix"
  },
  {
    "group": "North America",
    "geonameid": "5206379",
    "box": [
      -80.711,
      40.023,
      -79.249,
      40.88
    ],
    "slug": "pittsburgh",
    "name": "Pittsburgh"
  },
  {
    "group": "North America",
    "geonameid": "5746545",
    "box": [
      -123.211,
      45.096,
      -122.113,
      45.897
    ],
    "slug": "portland",
    "name": "Portland"
  },
  {
    "group": "North America",
    "geonameid": "5511077",
    "box": [
      -120.094,
      39.309,
      -119.506,
      39.769
    ],
    "slug": "reno",
    "name": "Reno"
  },
  {
    "group": "North America",
    "geonameid": "4407066",
    "box": [
      -91.01,
      38.069,
      -89.533,
      39.151
    ],
    "slug": "st-louis",
    "name": "St. Louis"
  },
  {
    "group": "North America",
    "geonameid": "5389489",
    "box": [
      -121.821,
      38.395,
      -120.995,
      38.955
    ],
    "slug": "sacramento",
    "name": "Sacramento"
  },
  {
    "group": "North America",
    "geonameid": "5391811;3981609",
    "box": [
      -117.376,
      32.312,
      -116.588,
      33.078
    ],
    "slug": "san-diego-tijuana",
    "name": "San Diego, Tijuana"
  },
  {
    "group": "North America",
    "geonameid": "5391959",
    "box": [
      -122.737,
      37.449,
      -122.011,
      37.955
    ],
    "slug": "san-francisco",
    "name": "San Francisco"
  },
  {
    "group": "North America",
    "geonameid": "",
    "box": [
      -123.64,
      36.791,
      -121.025,
      38.719
    ],
    "slug": "sf-bay-area",
    "name": "San Francisco Bay Area"
  },
  {
    "group": "North America",
    "geonameid": "5392952",
    "box": [
      -120.712,
      33.872,
      -119.08,
      34.764
    ],
    "slug": "santa-barbara",
    "name": "Santa Barbara"
  },
  {
    "group": "North America",
    "geonameid": "5809844",
    "box": [
      -122.86,
      47.38,
      -121.868,
      47.843
    ],
    "slug": "seattle",
    "name": "Seattle"
  },
  {
    "group": "North America",
    "geonameid": "5213681",
    "box": [
      -78.28,
      40.572,
      -77.302,
      41.106
    ],
    "slug": "state-college-pa",
    "name": "State College, PA"
  },
  {
    "group": "North America",
    "geonameid": "4174757",
    "box": [
      -82.935,
      27.279,
      -82.012,
      28.376
    ],
    "slug": "tampa",
    "name": "Tampa"
  },
  {
    "group": "North America",
    "geonameid": "7164249",
    "box": [
      -87.508,
      39.367,
      -87.28,
      39.578
    ],
    "slug": "terre-haute",
    "name": "Terre Haute"
  },
  {
    "group": "North America",
    "geonameid": "6167865",
    "box": [
      -80.161,
      43.201,
      -78.717,
      44.182
    ],
    "slug": "toronto",
    "name": "Toronto"
  },
  {
    "group": "North America",
    "geonameid": "6173331",
    "box": [
      -123.513,
      48.669,
      -121.777,
      49.475
    ],
    "slug": "vancouver",
    "name": "Vancouver"
  },
  {
    "group": "North America",
    "geonameid": "6174041",
    "box": [
      -124.063,
      48.054,
      -122.568,
      48.871
    ],
    "slug": "victoria",
    "name": "Victoria"
  },
  {
    "group": "North America",
    "geonameid": "4140963;4347778",
    "box": [
      -77.599,
      38.539,
      -76.058,
      39.631
    ],
    "slug": "dc-baltimore",
    "name": "Washington D.C., Baltimore"
  },
  {
    "group": "Oceania",
    "geonameid": "2193733",
    "box": [
      174.223,
      -37.348,
      175.314,
      -36.41
    ],
    "slug": "auckland",
    "name": "Auckland"
  },
  {
    "group": "Oceania",
    "geonameid": "1642911",
    "box": [
      106.435,
      -6.615,
      107.16,
      -5.881
    ],
    "slug": "jakarta",
    "name": "Jakarta"
  },
  {
    "group": "Oceania",
    "geonameid": "2158177",
    "box": [
      144.266,
      -38.552,
      145.81,
      -37.365
    ],
    "slug": "melbourne",
    "name": "Melbourne"
  },
  {
    "group": "Oceania",
    "geonameid": "2147714",
    "box": [
      150.628,
      -34.189,
      151.647,
      -33.637
    ],
    "slug": "sydney",
    "name": "Sydney"
  },
  {
    "group": "South America",
    "geonameid": "3688689",
    "box": [
      -74.421,
      4.291,
      -73.767,
      5.022
    ],
    "slug": "bogota",
    "name": "Bogota"
  },
  {
    "group": "South America",
    "geonameid": "3469058",
    "box": [
      -48.501,
      -16.317,
      -47.378,
      -15.36
    ],
    "slug": "brasilia-brazil",
    "name": "Bras√≠lia"
  },
  {
    "group": "South America",
    "geonameid": "3435910",
    "box": [
      -58.899,
      -34.966,
      -57.992,
      -34.293
    ],
    "slug": "buenos-aires",
    "name": "Buenos Aires"
  },
  {
    "group": "South America",
    "geonameid": "3687238",
    "box": [
      -75.627,
      10.251,
      -75.337,
      10.572
    ],
    "slug": "cartagena",
    "name": "Cartagena de Indias"
  },
  {
    "group": "South America",
    "geonameid": "3464975",
    "box": [
      -49.703,
      -25.799,
      -48.799,
      -25.071
    ],
    "slug": "curitiba-brazil",
    "name": "Curitiba, Brazil"
  },
  {
    "group": "South America",
    "geonameid": "3936456",
    "box": [
      -77.294,
      -12.358,
      -76.701,
      -11.644
    ],
    "slug": "lima",
    "name": "Lima"
  },
  {
    "group": "South America",
    "geonameid": "3652462",
    "box": [
      -78.853,
      -0.55,
      -78.1,
      0.109
    ],
    "slug": "quito-ecuador",
    "name": "Quito"
  },
  {
    "group": "South America",
    "geonameid": "3451190",
    "box": [
      -43.553,
      -23.231,
      -42.85,
      -22.51
    ],
    "slug": "rio-de-janeiro",
    "name": "Rio de Janeiro"
  },
  {
    "group": "South America",
    "geonameid": "3448439",
    "box": [
      -47.357,
      -24.317,
      -45.863,
      -23.125
    ],
    "slug": "sao-paulo",
    "name": "Sao Paulo"
  },
  {
    "group": "South America",
    "geonameid": "3871336",
    "box": [
      -71.043,
      -33.824,
      -70.353,
      -33.151
    ],
    "slug": "santiago",
    "name": "Santiago"
  }
]